QIANFAN-9               
1 60387U 24140J   26014.12455785  .00000109  00000+0  14977-3 0  9995
2 60387  88.9783 295.9912 0017882 101.2040 259.1123 13.50990178 71701
QIANFAN-10              
1 60388U 24140K   26014.12871964  .00000107  00000+0  14666-3 0  9990
2 60388  88.9792 295.3412 0016564  80.6939 279.6085 13.50990531 71835
QIANFAN-11              
1 60389U 24140L   26014.16589758  .00000109  00000+0  15024-3 0  9993
2 60389  88.9719 295.9003 0015930 100.5133 259.7814 13.50990074 71494
QIANFAN-12              
1 60390U 24140M   26014.11231289  .00000125  00000+0  17519-3 0  9992
2 60390  88.9762 295.9633 0014608 107.6606 252.6142 13.50987621 71611
QIANFAN-13              
1 60391U 24140N   26014.15756132  .00000104  00000+0  14278-3 0  9992
2 60391  88.9774 296.0625 0014382 109.8659 250.4043 13.50988038 71641
QIANFAN-14              
1 60392U 24140P   26014.10811773  .00000126  00000+0  17607-3 0  9994
2 60392  88.9753 295.9583 0018056 110.9107 249.3979 13.50987588 71647
QIANFAN-15              
1 60393U 24140Q   26014.11641814  .00000111  00000+0  15317-3 0  9993
2 60393  88.9776 295.9217 0014093  97.5869 262.6884 13.50986135 71638
QIANFAN-16              
1 60394U 24140R   26014.17813858  .00000132  00000+0  18600-3 0  9990
2 60394  88.9779 296.0364 0015935 113.8518 246.4305 13.50991557 71559
